STARLINK-2022           
1 47643U 21012Z   24006.17705316  .00001777  00000+0  13818-3 0  9997
2 47643  53.0562  13.8367 0001424 101.8866 258.2282 15.06392302160148
